[{"OBJECT_NAME":"STARLINK-34798","OBJECT_ID":"2025-165H","EPOCH":"2026-03-09T18:05:23.973216","MEAN_MOTION":15.05644548,"ECCENTRICITY":0.00011549,"INCLINATION":97.6023,"RA_OF_ASC_NODE":147.3485,"ARG_OF_PERICENTER":92.2896,"MEAN_ANOMALY":267.8463,"EPHEMERIS_TYPE":0,"CLASSIFICATION_TYPE":"U","NORAD_CAT_ID":65063,"ELEMENT_SET_NO":999,"REV_AT_EPOCH":3480,"BSTAR":0.00048937741,"MEAN_MOTION_DOT":7.006e-5,"MEAN_MOTION_DDOT":0},{"OBJECT_NAME":"COSMOS 2251 DEB","OBJECT_ID":"1993-036BFE","EPOCH":"2026-03-07T11:17:48.105024","MEAN_MOTION":15.02528382,"ECCENTRICITY":0.00920663,"INCLINATION":74.0305,"RA_OF_ASC_NODE":348.6467,"ARG_OF_PERICENTER":45.7,"MEAN_ANOMALY":315.169,"EPHEMERIS_TYPE":0,"CLASSIFICATION_TYPE":"U","NORAD_CAT_ID":37084,"ELEMENT_SET_NO":999,"REV_AT_EPOCH":67539,"BSTAR":0.00092223433,"MEAN_MOTION_DOT":0.00013425,"MEAN_MOTION_DDOT":0}]
